"Titania:Uranus III" "Sol/Uranus"
{
	Class	"moon"
	Texture	"titania.*"
	# NormalMap	"titania-normal.*"
	Color	[ 1.0 0.98945 0.97393 ]
	Radius	788.4
	Mass<kg>	3.4550e21
	CustomOrbit	"titania"

	# Overridden by CustomOrbit
	# OrbitFrame
	# {
	#	EclipticJ2000	{ Center "Sol/Uranus" }
	# }
	# EllipticalOrbit
	# {
	#	Epoch	2451545.0  # 2000 Jan 01 12:00
	#	Period	8.706234
	#	SemiMajorAxis	435910
	#	Eccentricity	0.0011
	#	Inclination	97.821207
	#	AscendingNode	167.613219
	#	ArgOfPericenter	203.953805
	#	MeanAnomaly	72.597842
	# }

	BodyFrame	{ EquatorJ2000 {} }
	CustomRotation	"iau-titania"

	# Overridden by CustomRotation
	# UniformRotation
	# {
	#	Inclination	74.90
	#	AscendingNode	167.43
	#	MeridianAngle	102.26
	# }

	LunarLambert	0.5
	GeomAlbedo	0.35
	BondAlbedo	0.17
	InfoURL	"https://en.wikipedia.org/wiki/Titania_(moon)"
}

AltSurface "Limit of knowledge" "Sol/Uranus/Titania"
{
	Texture	"titania.*"
	OverlayTexture	"titania-lok-mask.*"
	LunarLambert	0.5
}

"Oberon:Uranus IV" "Sol/Uranus"
{
	Class	"moon"
	Texture	"oberon.*"
	# NormalMap	"oberon-normal.*"
	Color	[ 1.0 0.98881 0.97178 ]
	Radius	761.4
	Mass<kg>	3.1104e21
	CustomOrbit	"oberon"

	# Overridden by CustomOrbit
	# OrbitFrame
	# {
	#	EclipticJ2000	{ Center "Sol/Uranus" }
	# }
	# EllipticalOrbit
	# {
	#	Epoch	2451545.0  # 2000 Jan 01 12:00
	#	Period	13.463234
	#	SemiMajorAxis	583520
	#	Eccentricity	0.0014
	#	Inclination	97.877864
	#	AscendingNode	167.756308
	#	ArgOfPericenter	252.847153
	#	MeanAnomaly	94.662801
	# }

	BodyFrame	{ EquatorJ2000 {} }
	CustomRotation	"iau-oberon"

	# Overridden by CustomRotation
	# UniformRotation
	# {
	#	Inclination	74.90
	#	AscendingNode	167.43
	#	MeridianAngle	173.23
	# }

	LunarLambert	0.5
	GeomAlbedo	0.31
	BondAlbedo	0.14
	InfoURL	"https://en.wikipedia.org/wiki/Oberon_(moon)"
}

AltSurface "Limit of knowledge" "Sol/Uranus/Oberon"
{
	Texture	"oberon.*"
	OverlayTexture	"oberon-lok-mask.*"
	LunarLambert	0.5
}

# Masses from Brozović and Jacobson (2022), AJ 163, 241
#   "Orbits of the Irregular Satellites of Uranus and Neptune"
#   https://ui.adsabs.harvard.edu/abs/2022AJ....163..241B/abstract
"Neptune" "Sol"
{
	Class	"planet"
	Texture	"neptune.*"
	Color	[ 0.78302 0.91535 1.0 ]
	Radius	24764
	Oblateness	0.0171
	Mass<kg>	1.024092879e26
	Atmosphere
	{
		Height	500
		Mie	0.002
		MieScaleHeight	20.3
		MieAsymmetry	-0.1
		Rayleigh	[ 0.00104 0.00193 0.00400 ]
		Absorption	[ 0.00000 0.00050 0.00100 ]
	}
	CustomOrbit	"vsop87-neptune"

	# Overridden by CustomOrbit
	# EllipticalOrbit
	# {
	#	Epoch	2451545.0  # 2000 Jan 01 12:00
	#	Period	165.087916323222
	#	SemiMajorAxis	30.09392573136601
	#	Eccentricity	0.01120361794639117
	#	Inclination	1.770211285182674
	#	AscendingNode	131.7839137619412
	#	ArgOfPericenter	267.3151968586168
	#	MeanAnomaly	266.1055972475706
	# }

	BodyFrame	{ EclipticJ2000 {} }
	UniformRotation
	{
		Period	16.11
		Inclination	28.03
		AscendingNode	49.24
		MeridianAngle	228.66
	}
	GeomAlbedo	0.409338
	BondAlbedo	0.290
	InternalHeatFlux	0.433
	Rings
	{
		Inner	40900
		Outer	62947
		Texture	"neptune-rings.*"
	}
	InfoURL	"https://en.wikipedia.org/wiki/Neptune"
}

"Proteus:Neptune VIII:S 1989 N 1" "Sol/Neptune"
{
	Class	"moon"
	Mesh	"proteus.cmod"
	Texture	"proteus.*"
	Radius	212
	Mass<kg>	5e19
	OrbitFrame
	{
		EclipticJ2000	{ Center "Sol/Neptune" }
	}
	EllipticalOrbit
	{
		Epoch	2447763.5  # 1989 Aug 25
		Period	1.12231477
		SemiMajorAxis	117647
		Eccentricity	0.00053
		Inclination	28.908433
		AscendingNode	48.083589
		ArgOfPericenter	81.195458
		MeanAnomaly	34.162384
	}
	BodyFrame	{ EquatorJ2000 {} }
	UniformRotation
	{
		Period	26.93555448
		Inclination	47.09
		AscendingNode	29.27
		MeridianAngle	93.38
	}
	LunarLambert	0.5
	GeomAlbedo	0.096
	InfoURL	"https://en.wikipedia.org/wiki/Proteus_(moon)"
}

"Triton:Neptune I" "Sol/Neptune"
{
	Class	"moon"
	Texture	"triton.*"
	Color	[ 1.0 0.99024 0.96338 ]
	SemiAxes	[ 1354.6 1352.8 1352.4 ]
	Mass<kg>	2.1403e22
	Atmosphere
	{
		Height	32
		Mie	0.0003
		MieScaleHeight	8
		Absorption	[ 0.00200 0.00200 0.00250 ]
	}
	OrbitFrame
	{
		EclipticJ2000	{ Center "Sol/Neptune" }
	}
	EllipticalOrbit
	{
		Epoch	2447763.5  # 1989 Aug 25
		Period	5.8768541
		SemiMajorAxis	354759
		Eccentricity	0.000016
		Inclination	130.909204
		AscendingNode	213.174202
		ArgOfPericenter	278.113474
		MeanAnomaly	349.996104
	}
	BodyFrame	{ EquatorJ2000 {} }
	UniformRotation
	{
		Epoch	2447763.5  # 1989 Aug 25
		Inclination	110.44
		AscendingNode	206.17
		MeridianAngle	77.41
	}
	LunarLambert	0.5
	GeomAlbedo	0.719
	BondAlbedo	0.65
	InfoURL	"https://en.wikipedia.org/wiki/Triton_(moon)"
}

AltSurface "Limit of knowledge" "Sol/Neptune/Triton"
{
	Texture	"triton.*"
	OverlayTexture	"triton-lok-mask.*"
	LunarLambert	0.5
}

"Nereid:Neptune II" "Sol/Neptune"
{
	Class	"minormoon"
	Mesh	"roughsphere.cms"
	Texture	"asteroid.*"
	Color	[ 0.592 0.57 0.551 ]
	BlendTexture	true
	SemiAxes	[ 199 168 153 ]
	Mass<kg>	3e19
	OrbitFrame
	{
		EclipticJ2000	{ Center "Sol/Neptune" }
	}
	EllipticalOrbit
	{
		Epoch	2447763.5  # 1989 Aug 25
		Period	359.396374
		SemiMajorAxis	5506217.008
		Eccentricity	0.753882
		Inclination	5.055101
		AscendingNode	319.892917
		ArgOfPericenter	296.451886
		MeanAnomaly	36.055860
	}
	UniformRotation
	{
		Period	11.594
	}
	LunarLambert	0.5
	GeomAlbedo	0.155
	InfoURL	"https://en.wikipedia.org/wiki/Nereid_(moon)"
}
